NORAD_CAT_ID,OBJECT_NAME,OBJECT_TYPE,EPOCH,MEAN_MOTION,ECCENTRICITY,INCLINATION,RA_OF_ASC_NODE,ARG_OF_PERICENTER,MEAN_ANOMALY,BSTAR,MEAN_MOTION_DOT,MEAN_MOTION_DDOT,TLE_LINE0,TLE_LINE1,TLE_LINE2,SEMIMAJOR_AXIS,PERIOD,APOGEE,PERIGEE,DECAYED
53258.0,STARLINK-4127,PAYLOAD,2024-02-01 03:55:55,15.08839317,0.0001883,53.2194,39.6797,104.2479,255.8723,2.2488e-05,7e-07,0.0,0 STARLINK-4127,1 53258U 22086S   24032.16383964  .00000070  00000-0  22488-4 0  9997,2 53258  53.2194  39.6797 0001883 104.2479 255.8723 15.08839317 85018,6917.882,95.438,541.05,538.445,0.0
53258.0,STARLINK-4127,PAYLOAD,2024-02-01 10:17:28,15.08839911,0.0001749,53.2189,38.489,102.1878,257.931,1.1727e-05,-1.01e-06,0.0,0 STARLINK-4127,1 53258U 22086S   24032.42879924 -.00000101  00000-0  11727-4 0  9992,2 53258  53.2189  38.4890 0001749 102.1878 257.9310 15.08839911 85233,6917.881,95.438,540.956,538.536,0.0
53258.0,STARLINK-4127,PAYLOAD,2024-02-02 05:22:05,15.08848711,0.000167,53.2187,34.9199,107.2562,252.8613,-3.7216e-05,-8.8e-06,0.0,0 STARLINK-4127,1 53258U 22086S   24033.22367561 -.00000880  00000-0 -37216-4 0  9996,2 53258  53.2187  34.9199 0001670 107.2562 252.8613 15.08848711 85174,6917.854,95.437,540.874,538.563,0.0
53258.0,STARLINK-4127,PAYLOAD,2024-02-02 22:51:20,15.08835671,0.000157,53.219,31.6501,91.6755,268.4417,2.7067e-05,1.43e-06,0.0,0 STARLINK-4127,1 53258U 22086S   24033.95232308  .00000143  00000-0  27067-4 0  9999,2 53258  53.2190  31.6501 0001570  91.6755 268.4417 15.08835671 85466,6917.894,95.438,540.845,538.673,0.0
53258.0,STARLINK-4127,PAYLOAD,2024-02-03 03:37:30,15.08834904,0.0001569,53.2189,30.7578,95.2535,264.8637,1.8313e-05,3e-08,0.0,0 STARLINK-4127,1 53258U 22086S   24034.15104411  .00000003  00000-0  18313-4 0  9994,2 53258  53.2189  30.7578 0001569  95.2535 264.8637 15.08834904 85318,6917.896,95.438,540.846,538.676,0.0
53258.0,STARLINK-4127,PAYLOAD,2024-02-03 06:48:16,15.08835401,0.0001578,53.2188,30.163,96.9891,263.128,2.3822e-05,9.1e-07,0.0,0 STARLINK-4127,1 53258U 22086S   24034.28352431  .00000091  00000-0  23822-4 0  9993,2 53258  53.2188  30.1630 0001578  96.9891 263.1280 15.08835401 85514,6917.894,95.438,540.851,538.668,0.0
53258.0,STARLINK-4127,PAYLOAD,2024-02-04 08:14:26,15.08844172,0.0001567,53.2192,25.406,94.2509,265.8662,6.5167e-05,7.49e-06,0.0,0 STARLINK-4127,1 53258U 22086S   24035.34336028  .00000749  00000-0  65167-4 0  9993,2 53258  53.2192  25.4060 0001567  94.2509 265.8662 15.08844172 85493,6917.868,95.437,540.817,538.649,0.0
53258.0,STARLINK-4127,PAYLOAD,2024-02-05 03:19:04,15.08837463,0.0001608,53.2195,21.8375,95.189,264.9286,6.6254e-05,7.67e-06,0.0,0 STARLINK-4127,1 53258U 22086S   24036.13824475  .00000767  00000-0  66254-4 0  9997,2 53258  53.2195  21.8375 0001608  95.1890 264.9286 15.08837463 85615,6917.888,95.438,540.866,538.641,0.0
53258.0,STARLINK-4127,PAYLOAD,2024-02-05 06:29:50,15.08840239,0.0001649,53.2199,21.2435,83.9012,276.2168,9.643e-05,1.247e-05,0.0,0 STARLINK-4127,1 53258U 22086S   24036.27072353  .00001247  00000-0  96430-4 0  9995,2 53258  53.2199  21.2435 0001649  83.9012 276.2168 15.08840239 85818,6917.88,95.438,540.885,538.604,0.0
53258.0,STARLINK-4127,PAYLOAD,2024-02-06 04:45:14,15.08847632,0.000171,53.2194,17.0775,72.3184,287.7995,3.9815e-05,3.46e-06,0.0,0 STARLINK-4127,1 53258U 22086S   24037.19808064  .00000346  00000-0  39815-4 0  9996,2 53258  53.2194  17.0775 0001710  72.3184 287.7995 15.08847632 85778,6917.857,95.437,540.905,538.539,0.0
53258.0,STARLINK-4127,PAYLOAD,2024-02-06 06:20:37,15.08850241,0.0001969,53.2205,16.7812,67.0683,293.0517,9.3539e-05,1.201e-05,0.0,0 STARLINK-4127,1 53258U 22086S   24037.26431715  .00001201  00000-0  93539-4 0  9993,2 53258  53.2205  16.7812 0001969  67.0683 293.0517 15.08850241 85961,6917.849,95.437,541.076,538.352,0.0
53258.0,STARLINK-4127,PAYLOAD,2024-02-06 22:14:28,15.08845075,0.0001571,53.2198,13.8129,86.9613,273.1559,5.6093e-06,-1.99e-06,0.0,0 STARLINK-4127,1 53258U 22086S   24037.92672144 -.00000199  00000-0  56093-5 0  9990,2 53258  53.2198  13.8129 0001571  86.9613 273.1559 15.08845075 86069,6917.865,95.437,540.817,538.643,0.0
53258.0,STARLINK-4127,PAYLOAD,2024-02-07 07:46:47,15.08849999,0.0001571,53.2195,12.0241,89.5434,270.5738,6.9272e-05,8.15e-06,0.0,0 STARLINK-4127,1 53258U 22086S   24038.32415516  .00000815  00000-0  69272-4 0  9999,2 53258  53.2195  12.0241 0001571  89.5434 270.5738 15.08849999 85947,6917.85,95.437,540.802,538.628,0.0
53258.0,STARLINK-4127,PAYLOAD,2024-02-07 22:05:16,15.0883894,0.0001131,53.2195,9.3498,91.9691,268.1431,-0.00011789,-2.163e-05,0.0,0 STARLINK-4127,1 53258U 22086S   24038.92032795 -.00002163  00000-0 -11789-3 0  9998,2 53258  53.2195   9.3498 0001131  91.9691 268.1431 15.08838940 86212,6917.884,95.438,540.531,538.966,0.0
53258.0,STARLINK-4127,PAYLOAD,2024-02-08 01:16:02,15.08814378,0.000229,53.219,8.7514,146.8114,213.3023,0.00033863,5.102e-05,0.0,0 STARLINK-4127,1 53258U 22086S   24039.05280215  .00005102  00000-0  33863-3 0  9996,2 53258  53.2190   8.7514 0002290 146.8114 213.3023 15.08814378 86056,6917.959,95.439,541.408,538.239,0.0
53258.0,STARLINK-4127,PAYLOAD,2024-02-08 21:56:03,15.08835005,0.0001517,53.2191,4.8889,113.0411,247.0742,4.5414e-06,-2.16e-06,0.0,0 STARLINK-4127,1 53258U 22086S   24039.91392811 -.00000216  00000-0  45414-5 0  9996,2 53258  53.2191   4.8889 0001517 113.0411 247.0742 15.08835005 86362,6917.896,95.438,540.81,538.711,0.0
53258.0,STARLINK-4127,PAYLOAD,2024-02-09 02:42:12,15.08838729,0.0001546,53.2191,3.9977,103.9889,256.1276,3.4817e-05,2.66e-06,0.0,0 STARLINK-4127,1 53258U 22086S   24040.11264609  .00000266  00000-0  34817-4 0  9991,2 53258  53.2191   3.9977 0001546 103.9889 256.1276 15.08838729 86212,6917.884,95.438,540.819,538.68,0.0
53258.0,STARLINK-4127,PAYLOAD,2024-02-10 04:08:23,15.08839218,0.000178,53.2194,359.2407,111.3036,248.8146,2.5347e-05,1.15e-06,0.0,0 STARLINK-4127,1 53258U 22086S   24041.17249024  .00000115  00000-0  25347-4 0  9993,2 53258  53.2194 359.2407 0001780 111.3036 248.8146 15.08839218 86372,6917.883,95.438,540.979,538.516,0.0
53258.0,STARLINK-4127,PAYLOAD,2024-02-10 21:37:37,15.08837983,0.0001477,53.2198,355.9688,99.1195,260.9965,6.2658e-05,7.09e-06,0.0,0 STARLINK-4127,1 53258U 22086S   24041.90113407  .00000709  00000-0  62658-4 0  9994,2 53258  53.2198 355.9688 0001477  99.1195 260.9965 15.08837983 86665,6917.887,95.438,540.773,538.73,0.0
53258.0,STARLINK-4127,PAYLOAD,2024-02-11 05:34:33,15.08844122,0.0001518,53.22,354.4847,101.4719,258.6444,0.00013708,1.895e-05,0.0,0 STARLINK-4127,1 53258U 22086S   24042.23232866  .00001895  00000-0  13708-3 0  9990,2 53258  53.2200 354.4847 0001518 101.4719 258.6444 15.08844122 86530,6917.868,95.437,540.783,538.683,0.0
53258.0,STARLINK-4127,PAYLOAD,2024-02-12 05:25:18,15.08862601,0.0001402,53.2189,350.0196,107.4527,252.6619,0.00026655,3.959e-05,0.0,0 STARLINK-4127,1 53258U 22086S   24043.22591299  .00003959  00000-0  26655-3 0  9996,2 53258  53.2189 350.0196 0001402 107.4527 252.6619 15.08862601 86686,6917.811,95.436,540.646,538.706,0.0
53258.0,STARLINK-4127,PAYLOAD,2024-02-12 19:43:49,15.08836742,0.0001417,53.219,347.3455,79.2406,280.8745,-4.1847e-05,-9.54e-06,0.0,0 STARLINK-4127,1 53258U 22086S   24043.82209928 -.00000954  00000-0 -41847-4 0  9992,2 53258  53.2190 347.3455 0001417  79.2406 280.8745 15.08836742 86773,6917.89,95.438,540.736,538.775,0.0
53258.0,STARLINK-4127,PAYLOAD,2024-02-13 05:16:07,15.08847511,0.0001443,53.2186,345.5591,88.3983,271.7175,4.1332e-05,3.7e-06,0.0,0 STARLINK-4127,1 53258U 22086S   24044.21952956  .00000370  00000-0  41332-4 0  9991,2 53258  53.2186 345.5591 0001443  88.3983 271.7175 15.08847511 86838,6917.857,95.437,540.721,538.724,0.0
53258.0,STARLINK-4127,PAYLOAD,2024-02-13 13:13:03,15.08841223,0.0001396,53.2198,344.069,89.9659,270.1493,-3.6853e-05,-8.74e-06,0.0,0 STARLINK-4127,1 53258U 22086S   24044.55073466 -.00000874  00000-0 -36853-4 0  9991,2 53258  53.2198 344.0690 0001396  89.9659 270.1493 15.08841223 87065,6917.877,95.437,540.707,538.776,0.0
53258.0,STARLINK-4127,PAYLOAD,2024-02-13 19:34:36,15.0884667,0.0001511,53.2185,342.8844,103.0482,257.0679,-0.00012116,-2.216e-05,0.0,0 STARLINK-4127,1 53258U 22086S   24044.81569568 -.00002216  00000-0 -12116-3 0  9990,2 53258  53.2185 342.8844 0001511 103.0482 257.0679 15.08846670 86924,6917.86,95.437,540.77,538.68,0.0
53258.0,STARLINK-4127,PAYLOAD,2024-02-14 01:56:08,15.08852254,0.0001538,53.2178,341.6964,104.6851,255.4312,-5.7405e-05,-1.202e-05,0.0,0 STARLINK-4127,1 53258U 22086S   24045.08065034 -.00001202  00000-0 -57405-4 0  9994,2 53258  53.2178 341.6964 0001538 104.6851 255.4312 15.08852254 86967,6917.843,95.437,540.772,538.644,0.0
53258.0,STARLINK-4127,PAYLOAD,2024-02-14 13:03:49,15.08854961,0.0001487,53.2178,339.6142,88.1089,272.0073,-4.7996e-05,-1.052e-05,0.0,0 STARLINK-4127,1 53258U 22086S   24045.54432435 -.00001052  00000-0 -47996-4 0  9995,2 53258  53.2178 339.6142 0001487  88.1089 272.0073 15.08854961 87219,6917.835,95.437,540.728,538.671,0.0
53258.0,STARLINK-4127,PAYLOAD,2024-02-15 01:46:55,15.08842993,0.0001496,53.2175,337.232,97.1502,262.966,7.8486e-05,9.61e-06,0.0,0 STARLINK-4127,1 53258U 22086S   24046.07425226  .00000961  00000-0  78486-4 0  9998,2 53258  53.2175 337.2320 0001496  97.1502 262.9660 15.08842993 87119,6917.871,95.437,540.771,538.701,0.0
53258.0,STARLINK-4127,PAYLOAD,2024-02-15 22:26:56,15.08834698,0.0001477,53.2175,333.3704,100.4042,259.7116,3.8826e-05,3.3e-06,0.0,0 STARLINK-4127,1 53258U 22086S   24046.93538125  .00000330  00000-0  38826-4 0  9990,2 53258  53.2175 333.3704 0001477 100.4042 259.7116 15.08834698 87425,6917.897,95.438,540.783,538.74,0.0
53258.0,STARLINK-4127,PAYLOAD,2024-02-16 04:48:28,15.08845773,0.0001281,53.2169,332.178,90.8034,269.3105,6.4803e-05,7.44e-06,0.0,0 STARLINK-4127,1 53258U 22086S   24047.20033328  .00000744  00000-0  64803-4 0  9999,2 53258  53.2169 332.1780 0001281  90.8034 269.3105 15.08845773 87280,6917.863,95.437,540.614,538.842,0.0
